[{"OBJECT_NAME":"HAWK-6A","OBJECT_ID":"2023-011D","EPOCH":"2023-10-22T03:48:56.328192","MEAN_MOTION":15.08517608,"ECCENTRICITY":0.0006779,"INCLINATION":40.5014,"RA_OF_ASC_NODE":181.1431,"ARG_OF_PERICENTER":279.216,"MEAN_ANOMALY":80.7878,"EPHEMERIS_TYPE":0,"CLASSIFICATION_TYPE":"U","NORAD_CAT_ID":55327,"ELEMENT_SET_NO":999,"REV_AT_EPOCH":4077,"BSTAR":0.00032692,"MEAN_MOTION_DOT":5.031e-5,"MEAN_MOTION_DDOT":0},{"OBJECT_NAME":"STARLINK-5492","OBJECT_ID":"2023-013A","EPOCH":"2023-10-22T13:13:49.411776","MEAN_MOTION":15.02554721,"ECCENTRICITY":0.0001497,"INCLINATION":43.0046,"RA_OF_ASC_NODE":343.4022,"ARG_OF_PERICENTER":267.8245,"MEAN_ANOMALY":92.2426,"EPHEMERIS_TYPE":0,"CLASSIFICATION_TYPE":"U","NORAD_CAT_ID":55331,"ELEMENT_SET_NO":999,"REV_AT_EPOCH":4204,"BSTAR":0.00086644,"MEAN_MOTION_DOT":0.00011526,"MEAN_MOTION_DDOT":0},{"OBJECT_NAME":"STARLINK-5491","OBJECT_ID":"2023-013B","EPOCH":"2023-10-22T12:45:25.046496","MEAN_MOTION":15.02552614,"ECCENTRICITY":0.0001231,"INCLINATION":43.0042,"RA_OF_ASC_NODE":330.2326,"ARG_OF_PERICENTER":271.0435,"MEAN_ANOMALY":89.0266,"EPHEMERIS_TYPE":0,"CLASSIFICATION_TYPE":"U","NORAD_CAT_ID":55332,"ELEMENT_SET_NO":999,"REV_AT_EPOCH":4111,"BSTAR":0.0004611,"MEAN_MOTION_DOT":6.033e-5,"MEAN_MOTION_DDOT":0},{"OBJECT_NAME":"STARLINK-5493","OBJECT_ID":"2023-013C","EPOCH":"2023-10-22T13:05:50.217504","MEAN_MOTION":15.02547879,"ECCENTRICITY":7.88e-5,"INCLINATION":43.0047,"RA_OF_ASC_NODE":343.3593,"ARG_OF_PERICENTER":288.0381,"MEAN_ANOMALY":72.0376,"EPHEMERIS_TYPE":0,"CLASSIFICATION_TYPE":"U","NORAD_CAT_ID":55333,"ELEMENT_SET_NO":999,"REV_AT_EPOCH":4096,"BSTAR":0.0011552,"MEAN_MOTION_DOT":0.0001544,"MEAN_MOTION_DDOT":0},{"OBJECT_NAME":"STARLINK-5652","OBJECT_ID":"2023-013D","EPOCH":"2023-10-22T12:24:50.975424","MEAN_MOTION":15.0173058,"ECCENTRICITY":0.0001313,"INCLINATION":43.005,"RA_OF_ASC_NODE":340.5275,"ARG_OF_PERICENTER":270.206,"MEAN_ANOMALY":89.8631,"EPHEMERIS_TYPE":0,"CLASSIFICATION_TYPE":"U","NORAD_CAT_ID":55334,"ELEMENT_SET_NO":999,"REV_AT_EPOCH":4142,"BSTAR":0.00020269,"MEAN_MOTION_DOT":2.479e-5,"MEAN_MOTION_DDOT":0},{"OBJECT_NAME":"STARLINK-5660","OBJECT_ID":"2023-013E","EPOCH":"2023-10-22T11:25:18.703488","MEAN_MOTION":15.02536722,"ECCENTRICITY":6.44e-5,"INCLINATION":43.0045,"RA_OF_ASC_NODE":343.6983,"ARG_OF_PERICENTER":293.5917,"MEAN_ANOMALY":66.4857,"EPHEMERIS_TYPE":0,"CLASSIFICATION_TYPE":"U","NORAD_CAT_ID":55335,"ELEMENT_SET_NO":999,"REV_AT_EPOCH":4095,"BSTAR":0.00011375,"MEAN_MOTION_DOT":1.333e-5,"MEAN_MOTION_DDOT":0},{"OBJECT_NAME":"STARLINK-5655","OBJECT_ID":"2023-013F","EPOCH":"2023-10-22T12:28:41.869920","MEAN_MOTION":15.01737414,"ECCENTRICITY":0.0001096,"INCLINATION":43.0038,"RA_OF_ASC_NODE":330.0694,"ARG_OF_PERICENTER":269.964,"MEAN_ANOMALY":90.1077,"EPHEMERIS_TYPE":0,"CLASSIFICATION_TYPE":"U","NORAD_CAT_ID":55336,"ELEMENT_SET_NO":999,"REV_AT_EPOCH":4111,"BSTAR":0.00042343,"MEAN_MOTION_DOT":5.402e-5,"MEAN_MOTION_DDOT":0},{"OBJECT_NAME":"STARLINK-5667","OBJECT_ID":"2023-013G","EPOCH":"2023-10-22T12:32:37.651200","MEAN_MOTION":15.02555564,"ECCENTRICITY":0.0001277,"INCLINATION":43.0042,"RA_OF_ASC_NODE":330.1271,"ARG_OF_PERICENTER":270.0806,"MEAN_ANOMALY":89.989,"EPHEMERIS_TYPE":0,"CLASSIFICATION_TYPE":"U","NORAD_CAT_ID":55337,"ELEMENT_SET_NO":999,"REV_AT_EPOCH":4111,"BSTAR":0.00074134,"MEAN_MOTION_DOT":9.83e-5,"MEAN_MOTION_DDOT":0},{"OBJECT_NAME":"STARLINK-5658","OBJECT_ID":"2023-013H","EPOCH":"2023-10-22T12:57:50.739840","MEAN_MOTION":15.025418,"ECCENTRICITY":0.0001118,"INCLINATION":43.0041,"RA_OF_ASC_NODE":343.3167,"ARG_OF_PERICENTER":265.755,"MEAN_ANOMALY":94.3164,"EPHEMERIS_TYPE":0,"CLASSIFICATION_TYPE":"U","NORAD_CAT_ID":55338,"ELEMENT_SET_NO":999,"REV_AT_EPOCH":4096,"BSTAR":0.0003267,"MEAN_MOTION_DOT":4.213e-5,"MEAN_MOTION_DDOT":0},{"OBJECT_NAME":"STARLINK-5671","OBJECT_ID":"2023-013J","EPOCH":"2023-10-22T12:49:50.737728","MEAN_MOTION":15.02550866,"ECCENTRICITY":0.0001244,"INCLINATION":43.0041,"RA_OF_ASC_NODE":343.2773,"ARG_OF_PERICENTER":268.5572,"MEAN_ANOMALY":91.5128,"EPHEMERIS_TYPE":0,"CLASSIFICATION_TYPE":"U","NORAD_CAT_ID":55339,"ELEMENT_SET_NO":999,"REV_AT_EPOCH":4096,"BSTAR":0.00041918,"MEAN_MOTION_DOT":5.465e-5,"MEAN_MOTION_DDOT":0},{"OBJECT_NAME":"STARLINK-5675","OBJECT_ID":"2023-013K","EPOCH":"2023-10-22T12:46:39.224352","MEAN_MOTION":15.02545802,"ECCENTRICITY":0.0001403,"INCLINATION":43.0045,"RA_OF_ASC_NODE":343.2588,"ARG_OF_PERICENTER":265.6565,"MEAN_ANOMALY":94.4117,"EPHEMERIS_TYPE":0,"CLASSIFICATION_TYPE":"U","NORAD_CAT_ID":55340,"ELEMENT_SET_NO":999,"REV_AT_EPOCH":4096,"BSTAR":0.00048597,"MEAN_MOTION_DOT":6.369e-5,"MEAN_MOTION_DDOT":0},{"OBJECT_NAME":"STARLINK-5670","OBJECT_ID":"2023-013L","EPOCH":"2023-10-22T12:53:02.743584","MEAN_MOTION":15.02546166,"ECCENTRICITY":0.0001456,"INCLINATION":43.0045,"RA_OF_ASC_NODE":343.294,"ARG_OF_PERICENTER":276.4981,"MEAN_ANOMALY":83.5696,"EPHEMERIS_TYPE":0,"CLASSIFICATION_TYPE":"U","NORAD_CAT_ID":55341,"ELEMENT_SET_NO":999,"REV_AT_EPOCH":4096,"BSTAR":0.00044211,"MEAN_MOTION_DOT":5.775e-5,"MEAN_MOTION_DDOT":0},{"OBJECT_NAME":"STARLINK-5657","OBJECT_ID":"2023-013M","EPOCH":"2023-10-22T12:45:03.261600","MEAN_MOTION":15.02550596,"ECCENTRICITY":0.0001146,"INCLINATION":43.0039,"RA_OF_ASC_NODE":343.251,"ARG_OF_PERICENTER":265.7153,"MEAN_ANOMALY":94.3558,"EPHEMERIS_TYPE":0,"CLASSIFICATION_TYPE":"U","NORAD_CAT_ID":55342,"ELEMENT_SET_NO":999,"REV_AT_EPOCH":4096,"BSTAR":0.00067209,"MEAN_MOTION_DOT":8.89e-5,"MEAN_MOTION_DDOT":0},{"OBJECT_NAME":"STARLINK-5661","OBJECT_ID":"2023-013N","EPOCH":"2023-10-22T12:37:03.631872","MEAN_MOTION":15.02549419,"ECCENTRICITY":0.000139,"INCLINATION":43.0039,"RA_OF_ASC_NODE":343.2086,"ARG_OF_PERICENTER":272.4198,"MEAN_ANOMALY":87.6485,"EPHEMERIS_TYPE":0,"CLASSIFICATION_TYPE":"U","NORAD_CAT_ID":55343,"ELEMENT_SET_NO":999,"REV_AT_EPOCH":4096,"BSTAR":0.00042532,"MEAN_MOTION_DOT":5.548e-5,"MEAN_MOTION_DDOT":0},{"OBJECT_NAME":"STARLINK-5662","OBJECT_ID":"2023-013P","EPOCH":"2023-10-22T11:04:32.030976","MEAN_MOTION":15.02538883,"ECCENTRICITY":9.67e-5,"INCLINATION":43.0045,"RA_OF_ASC_NODE":343.5887,"ARG_OF_PERICENTER":266.026,"MEAN_ANOMALY":94.0472,"EPHEMERIS_TYPE":0,"CLASSIFICATION_TYPE":"U","NORAD_CAT_ID":55344,"ELEMENT_SET_NO":999,"REV_AT_EPOCH":4095,"BSTAR":9.836e-5,"MEAN_MOTION_DOT":1.125e-5,"MEAN_MOTION_DDOT":0},{"OBJECT_NAME":"STARLINK-5653","OBJECT_ID":"2023-013Q","EPOCH":"2023-10-22T12:40:37.580736","MEAN_MOTION":15.02551422,"ECCENTRICITY":0.0001164,"INCLINATION":43.0036,"RA_OF_ASC_NODE":330.196,"ARG_OF_PERICENTER":267.5121,"MEAN_ANOMALY":92.5588,"EPHEMERIS_TYPE":0,"CLASSIFICATION_TYPE":"U","NORAD_CAT_ID":55345,"ELEMENT_SET_NO":999,"REV_AT_EPOCH":4111,"BSTAR":0.0005487,"MEAN_MOTION_DOT":7.219e-5,"MEAN_MOTION_DDOT":0},{"OBJECT_NAME":"STARLINK-5631","OBJECT_ID":"2023-013R","EPOCH":"2023-10-22T12:32:16.283616","MEAN_MOTION":15.02543138,"ECCENTRICITY":0.0001089,"INCLINATION":43.0036,"RA_OF_ASC_NODE":343.1831,"ARG_OF_PERICENTER":273.8784,"MEAN_ANOMALY":86.1934,"EPHEMERIS_TYPE":0,"CLASSIFICATION_TYPE":"U","NORAD_CAT_ID":55346,"ELEMENT_SET_NO":999,"REV_AT_EPOCH":4096,"BSTAR":0.00043753,"MEAN_MOTION_DOT":5.713e-5,"MEAN_MOTION_DDOT":0},{"OBJECT_NAME":"STARLINK-5663","OBJECT_ID":"2023-013S","EPOCH":"2023-10-22T12:16:17.325696","MEAN_MOTION":15.02542598,"ECCENTRICITY":0.0001283,"INCLINATION":43.0037,"RA_OF_ASC_NODE":343.1006,"ARG_OF_PERICENTER":279.6322,"MEAN_ANOMALY":80.4376,"EPHEMERIS_TYPE":0,"CLASSIFICATION_TYPE":"U","NORAD_CAT_ID":55347,"ELEMENT_SET_NO":999,"REV_AT_EPOCH":4096,"BSTAR":0.00030291,"MEAN_MOTION_DOT":3.891e-5,"MEAN_MOTION_DDOT":0},{"OBJECT_NAME":"STARLINK-5609","OBJECT_ID":"2023-013T","EPOCH":"2023-10-22T12:29:04.047936","MEAN_MOTION":15.02539315,"ECCENTRICITY":0.000138,"INCLINATION":43.0045,"RA_OF_ASC_NODE":343.1664,"ARG_OF_PERICENTER":275.3161,"MEAN_ANOMALY":84.7524,"EPHEMERIS_TYPE":0,"CLASSIFICATION_TYPE":"U","NORAD_CAT_ID":55348,"ELEMENT_SET_NO":999,"REV_AT_EPOCH":4096,"BSTAR":7.9821e-5,"MEAN_MOTION_DOT":8.75e-6,"MEAN_MOTION_DDOT":0},{"OBJECT_NAME":"STARLINK-5666","OBJECT_ID":"2023-013U","EPOCH":"2023-10-22T12:24:16.665984","MEAN_MOTION":15.0255419,"ECCENTRICITY":0.0001017,"INCLINATION":43.0035,"RA_OF_ASC_NODE":343.1441,"ARG_OF_PERICENTER":262.489,"MEAN_ANOMALY":97.5837,"EPHEMERIS_TYPE":0,"CLASSIFICATION_TYPE":"U","NORAD_CAT_ID":55349,"ELEMENT_SET_NO":999,"REV_AT_EPOCH":4096,"BSTAR":0.00095294,"MEAN_MOTION_DOT":0.00012698,"MEAN_MOTION_DDOT":0},{"OBJECT_NAME":"STARLINK-5668","OBJECT_ID":"2023-013V","EPOCH":"2023-10-22T12:19:28.702560","MEAN_MOTION":15.02551314,"ECCENTRICITY":0.0001521,"INCLINATION":43.0043,"RA_OF_ASC_NODE":343.1168,"ARG_OF_PERICENTER":267.5141,"MEAN_ANOMALY":92.5527,"EPHEMERIS_TYPE":0,"CLASSIFICATION_TYPE":"U","NORAD_CAT_ID":55350,"ELEMENT_SET_NO":999,"REV_AT_EPOCH":4096,"BSTAR":0.00059274,"MEAN_MOTION_DOT":7.815e-5,"MEAN_MOTION_DDOT":0},{"OBJECT_NAME":"STARLINK-5659","OBJECT_ID":"2023-013W","EPOCH":"2023-10-22T12:03:29.958048","MEAN_MOTION":15.02553291,"ECCENTRICITY":0.0001364,"INCLINATION":43.0037,"RA_OF_ASC_NODE":343.0356,"ARG_OF_PERICENTER":271.6678,"MEAN_ANOMALY":88.4008,"EPHEMERIS_TYPE":0,"CLASSIFICATION_TYPE":"U","NORAD_CAT_ID":55351,"ELEMENT_SET_NO":999,"REV_AT_EPOCH":4096,"BSTAR":0.00091717,"MEAN_MOTION_DOT":0.00012213,"MEAN_MOTION_DDOT":0},{"OBJECT_NAME":"STARLINK-5547","OBJECT_ID":"2023-013X","EPOCH":"2023-10-22T12:11:28.857696","MEAN_MOTION":15.02542171,"ECCENTRICITY":0.000131,"INCLINATION":43.0048,"RA_OF_ASC_NODE":343.0742,"ARG_OF_PERICENTER":271.0459,"MEAN_ANOMALY":89.0234,"EPHEMERIS_TYPE":0,"CLASSIFICATION_TYPE":"U","NORAD_CAT_ID":55352,"ELEMENT_SET_NO":999,"REV_AT_EPOCH":4096,"BSTAR":0.00013964,"MEAN_MOTION_DOT":1.683e-5,"MEAN_MOTION_DDOT":0},{"OBJECT_NAME":"STARLINK-5608","OBJECT_ID":"2023-013Y","EPOCH":"2023-10-22T13:18:27.069408","MEAN_MOTION":15.02540602,"ECCENTRICITY":8.02e-5,"INCLINATION":43.0049,"RA_OF_ASC_NODE":342.5628,"ARG_OF_PERICENTER":271.3108,"MEAN_ANOMALY":88.7642,"EPHEMERIS_TYPE":0,"CLASSIFICATION_TYPE":"U","NORAD_CAT_ID":55353,"ELEMENT_SET_NO":999,"REV_AT_EPOCH":4097,"BSTAR":0.00020919,"MEAN_MOTION_DOT":2.624e-5,"MEAN_MOTION_DDOT":0}]
